NORAD_CAT_ID,OBJECT_NAME,OBJECT_TYPE,EPOCH,MEAN_MOTION,ECCENTRICITY,INCLINATION,RA_OF_ASC_NODE,ARG_OF_PERICENTER,MEAN_ANOMALY,BSTAR,MEAN_MOTION_DOT,MEAN_MOTION_DDOT,TLE_LINE0,TLE_LINE1,TLE_LINE2,SEMIMAJOR_AXIS,PERIOD,APOGEE,PERIGEE,DECAYED
53996.0,STARLINK-5131,PAYLOAD,2024-04-09 07:39:51,15.08822636,0.0001406,53.2156,113.5542,88.2628,271.8525,-6.6843e-05,-1.351e-05,0.0,0 STARLINK-5131,1 53996U 22125AJ  24100.31934657 -.00001351  00000-0 -66843-4 0  9992,2 53996  53.2156 113.5542 0001406  88.2628 271.8525 15.08822636 83880,6917.933,95.439,540.771,538.826,0.0
53996.0,STARLINK-5131,PAYLOAD,2024-04-10 04:19:52,15.08829468,0.0001334,53.2163,109.6884,87.4061,272.7084,-2.1862e-05,-6.36e-06,0.0,0 STARLINK-5131,1 53996U 22125AJ  24101.18046793 -.00000636  00000-0 -21862-4 0  9990,2 53996  53.2163 109.6884 0001334  87.4061 272.7084 15.08829468 84088,6917.913,95.438,540.7,538.855,0.0
53996.0,STARLINK-5131,PAYLOAD,2024-04-10 07:30:38,15.08832729,0.0001318,53.2165,109.0948,86.599,273.5153,8.9023e-06,-1.46e-06,0.0,0 STARLINK-5131,1 53996U 22125AJ  24101.31294577 -.00000146  00000-0  89023-5 0  9999,2 53996  53.2165 109.0948 0001318  86.5990 273.5153 15.08832729 84033,6917.903,95.438,540.679,538.856,0.0
53996.0,STARLINK-5131,PAYLOAD,2024-04-10 17:02:57,15.08838253,0.0001328,53.2166,107.3103,85.672,274.4424,4.0888e-05,3.63e-06,0.0,0 STARLINK-5131,1 53996U 22125AJ  24101.71038284  .00000363  00000-0  40888-4 0  9999,2 53996  53.2166 107.3103 0001328  85.6720 274.4424 15.08838253 84163,6917.886,95.438,540.669,538.832,0.0
53996.0,STARLINK-5131,PAYLOAD,2024-04-10 23:24:29,15.08832985,0.000123,53.2161,106.1199,82.9911,277.1221,0.00016787,2.384e-05,0.0,0 STARLINK-5131,1 53996U 22125AJ  24101.97534380  .00002384  00000-0  16787-3 0  9990,2 53996  53.2161 106.1199 0001230  82.9911 277.1221 15.08832985 84132,6917.902,95.438,540.618,538.916,0.0
53996.0,STARLINK-5131,PAYLOAD,2024-04-11 10:32:11,15.08841741,0.0001253,53.2161,104.0388,84.0019,276.1116,0.00022499,3.295e-05,0.0,0 STARLINK-5131,1 53996U 22125AJ  24102.43901906  .00003295  00000-0  22499-3 0  9993,2 53996  53.2161 104.0388 0001253  84.0019 276.1116 15.08841741 84206,6917.875,95.437,540.607,538.873,0.0
53996.0,STARLINK-5131,PAYLOAD,2024-04-11 16:53:43,15.08840822,0.0001238,53.2159,102.8492,84.2461,275.8673,0.0001944,2.807e-05,0.0,0 STARLINK-5131,1 53996U 22125AJ  24102.70398146  .00002807  00000-0  19440-3 0  9999,2 53996  53.2159 102.8492 0001238  84.2461 275.8673 15.08840822 84248,6917.878,95.438,540.599,538.886,0.0
53996.0,STARLINK-5131,PAYLOAD,2024-04-12 04:01:25,15.08844397,0.0001235,53.2159,100.7673,84.1587,275.9546,9.4181e-05,1.212e-05,0.0,0 STARLINK-5131,1 53996U 22125AJ  24103.16766187  .00001212  00000-0  94181-4 0  9999,2 53996  53.2159 100.7673 0001235  84.1587 275.9546 15.08844397 84387,6917.867,95.437,540.586,538.878,0.0
53996.0,STARLINK-5131,PAYLOAD,2024-04-12 08:47:35,15.08848398,0.0001279,53.2161,99.8755,84.8355,275.2783,0.00012929,1.771e-05,0.0,0 STARLINK-5131,1 53996U 22125AJ  24103.36637810  .00001771  00000-0  12929-3 0  9990,2 53996  53.2161  99.8755 0001279  84.8355 275.2783 15.08848398 84344,6917.855,95.437,540.605,538.835,0.0
53996.0,STARLINK-5131,PAYLOAD,2024-04-13 08:38:21,15.08849761,0.0001377,53.2166,95.4155,88.7186,271.3964,3.1731e-05,2.17e-06,0.0,0 STARLINK-5131,1 53996U 22125AJ  24104.35997507  .00000217  00000-0  31731-4 0  9999,2 53996  53.2166  95.4155 0001377  88.7186 271.3964 15.08849761 84566,6917.851,95.437,540.668,538.763,0.0
53996.0,STARLINK-5131,PAYLOAD,2024-04-14 03:42:59,15.08843629,0.0001578,53.2176,91.8443,81.6304,278.4867,1.6802e-05,-2.1e-07,0.0,0 STARLINK-5131,1 53996U 22125AJ  24105.15485778 -.00000021  00000-0  16802-4 0  9996,2 53996  53.2176  91.8443 0001578  81.6304 278.4867 15.08843629 84684,6917.869,95.437,540.826,538.643,0.0
53996.0,STARLINK-5131,PAYLOAD,2024-04-14 22:47:37,15.08841201,0.0001774,53.2182,88.2791,75.1138,285.005,3.7821e-05,3.14e-06,0.0,0 STARLINK-5131,1 53996U 22125AJ  24105.94973873  .00000314  00000-0  37821-4 0  9999,2 53996  53.2182  88.2791 0001774  75.1138 285.0050 15.08841201 84736,6917.877,95.437,540.969,538.514,0.0
53996.0,STARLINK-5131,PAYLOAD,2024-04-15 05:09:09,15.08841015,0.000171,53.2181,87.0896,78.1312,281.9872,3.1603e-05,2.15e-06,0.0,0 STARLINK-5131,1 53996U 22125AJ  24106.21469856  .00000215  00000-0  31603-4 0  9993,2 53996  53.2181  87.0896 0001710  78.1312 281.9872 15.08841015 84847,6917.877,95.437,540.925,538.559,0.0
53996.0,STARLINK-5131,PAYLOAD,2024-04-16 04:59:56,15.08854252,0.0001442,53.2182,82.6284,102.8621,257.2532,4.3214e-05,4e-06,0.0,0 STARLINK-5131,1 53996U 22125AJ  24107.20828835  .00000400  00000-0  43214-4 0  9996,2 53996  53.2182  82.6284 0001442 102.8621 257.2532 15.08854252 84992,6917.837,95.437,540.699,538.704,0.0
53996.0,STARLINK-5131,PAYLOAD,2024-04-16 08:10:42,15.08861132,0.0001545,53.2188,82.0327,104.8887,255.2276,7.2576e-06,-1.72e-06,0.0,0 STARLINK-5131,1 53996U 22125AJ  24107.34076391 -.00000172  00000-0  72576-5 0  9994,2 53996  53.2188  82.0327 0001545 104.8887 255.2276 15.08861132 84943,6917.816,95.436,540.75,538.612,0.0
53996.0,STARLINK-5131,PAYLOAD,2024-04-17 04:50:43,15.08850821,0.0001372,53.2184,78.1679,104.5125,255.602,0.00012218,1.658e-05,0.0,0 STARLINK-5131,1 53996U 22125AJ  24108.20188748  .00001658  00000-0  12218-3 0  9994,2 53996  53.2184  78.1679 0001372 104.5125 255.6020 15.08850821 85142,6917.847,95.437,540.661,538.763,0.0
53996.0,STARLINK-5131,PAYLOAD,2024-04-17 08:01:29,15.08852951,0.0001432,53.2171,77.572,101.2468,258.8686,0.00020025,2.902e-05,0.0,0 STARLINK-5131,1 53996U 22125AJ  24108.33436768  .00002902  00000-0  20025-3 0  9994,2 53996  53.2171  77.5720 0001432 101.2468 258.8686 15.08852951 85092,6917.841,95.437,540.696,538.715,0.0
53996.0,STARLINK-5131,PAYLOAD,2024-04-18 01:30:45,15.08828976,0.000182,53.2166,74.3018,113.7984,246.3199,-0.00011464,-2.112e-05,0.0,0 STARLINK-5131,1 53996U 22125AJ  24109.06302385 -.00002112  00000-0 -11464-3 0  9994,2 53996  53.2166  74.3018 0001820 113.7984 246.3199 15.08828976 85274,6917.914,95.438,541.038,538.52,0.0
53996.0,STARLINK-5131,PAYLOAD,2024-04-18 07:52:18,15.08824378,0.0001675,53.2166,73.1095,103.8361,256.2817,-0.00019131,-3.33e-05,0.0,0 STARLINK-5131,1 53996U 22125AJ  24109.32798808 -.00003330  00000-0 -19131-3 0  9994,2 53996  53.2166  73.1095 0001675 103.8361 256.2817 15.08824378 85249,6917.928,95.439,540.952,538.634,0.0
53996.0,STARLINK-5131,PAYLOAD,2024-04-19 02:56:55,15.08838758,0.0001705,53.2164,69.5449,105.0592,255.0589,2.807e-05,1.59e-06,0.0,0 STARLINK-5131,1 53996U 22125AJ  24110.12286625  .00000159  00000-0  28070-4 0  9990,2 53996  53.2164  69.5449 0001705 105.0592 255.0589 15.08838758 85434,6917.884,95.438,540.929,538.57,0.0
53996.0,STARLINK-5131,PAYLOAD,2024-04-20 04:23:05,15.08872479,0.0001682,53.2167,64.7876,79.0692,281.0489,0.00074381,0.0001158,0.0,0 STARLINK-5131,1 53996U 22125AJ  24111.18269704  .00011580  00000-0  74381-3 0  9991,2 53996  53.2167  64.7876 0001682  79.0692 281.0489 15.08872479 85596,6917.781,95.436,540.81,538.483,0.0
53996.0,STARLINK-5131,PAYLOAD,2024-04-20 05:58:27,15.08876706,0.0001692,53.2169,64.488,92.0401,268.0785,0.00081487,0.00012717,0.0,0 STARLINK-5131,1 53996U 22125AJ  24111.24893412  .00012717  00000-0  81487-3 0  9995,2 53996  53.2169  64.4880 0001692  92.0401 268.0785 15.08876706 85539,6917.768,95.435,540.804,538.463,0.0
53996.0,STARLINK-5131,PAYLOAD,2024-04-20 20:16:57,15.08826593,0.0001441,53.2173,61.8105,123.2398,236.8732,-0.00037503,-6.249e-05,0.0,0 STARLINK-5131,1 53996U 22125AJ  24111.84510636 -.00006249  00000-0 -37503-3 0  9990,2 53996  53.2173  61.8105 0001441 123.2398 236.8732 15.08826593 85690,6917.921,95.438,540.783,538.789,0.0
53996.0,STARLINK-5131,PAYLOAD,2024-04-21 05:49:16,15.08822654,0.0001105,53.2169,60.0262,94.8206,265.2912,9.804e-05,1.272e-05,0.0,0 STARLINK-5131,1 53996U 22125AJ  24112.24255129  .00001272  00000-0  98040-4 0  9991,2 53996  53.2169  60.0262 0001105  94.8206 265.2912 15.08822654 85687,6917.933,95.439,540.563,539.034,0.0
53996.0,STARLINK-5131,PAYLOAD,2024-04-22 02:29:17,15.08858625,0.0001226,53.2181,56.1623,73.4578,286.6549,0.0015725,0.0002484,0.0,0 STARLINK-5131,1 53996U 22125AJ  24113.10367564  .00024840  00000-0  15725-2 0  9997,2 53996  53.2181  56.1623 0001226  73.4578 286.6549 15.08858625 85889,6917.823,95.436,540.537,538.84,0.0
53996.0,STARLINK-5131,PAYLOAD,2024-04-22 05:40:03,15.08874459,0.000118,53.2174,55.5666,85.8203,274.2924,0.0019955,0.00031643,0.0,0 STARLINK-5131,1 53996U 22125AJ  24113.23615165  .00031643  00000-0  19955-2 0  9992,2 53996  53.2174  55.5666 0001180  85.8203 274.2924 15.08874459 85908,6917.775,95.435,540.456,538.824,0.0
53996.0,STARLINK-5131,PAYLOAD,2024-04-22 19:58:31,15.08845354,9.18e-05,53.2174,52.8901,93.7219,266.3878,0.00052953,8.151e-05,0.0,0 STARLINK-5131,1 53996U 22125AJ  24113.83231341  .00008151  00000-0  52953-3 0  9992,2 53996  53.2174  52.8901 0000918  93.7219 266.3878 15.08845354 85994,6917.864,95.437,540.364,539.094,0.0
53996.0,STARLINK-5131,PAYLOAD,2024-04-23 05:30:50,15.08863123,9.39e-05,53.2177,51.1069,85.6117,274.4983,0.0014724,0.00023238,0.0,0 STARLINK-5131,1 53996U 22125AJ  24114.22974960  .00023238  00000-0  14724-2 0  9993,2 53996  53.2177  51.1069 0000939  85.6117 274.4983 15.08863123 86053,6917.81,95.436,540.324,539.025,0.0
53996.0,STARLINK-5131,PAYLOAD,2024-04-23 19:49:19,15.08836958,5.94e-05,53.2188,48.43,119.9726,240.1325,0.00077071,0.00011998,0.0,0 STARLINK-5131,1 53996U 22125AJ  24114.82591530  .00011998  00000-0  77071-3 0  9992,2 53996  53.2188  48.4300 0000594 119.9726 240.1325 15.08836958 86142,6917.89,95.438,540.166,539.344,0.0
53996.0,STARLINK-5131,PAYLOAD,2024-04-24 02:10:51,15.08855724,0.0001273,53.2184,47.2423,105.6528,254.4605,0.0017797,0.00028162,0.0,0 STARLINK-5131,1 53996U 22125AJ  24115.09087382  .00028162  00000-0  17797-2 0  9996,2 53996  53.2184  47.2423 0001273 105.6528 254.4605 15.08855724 86183,6917.832,95.437,540.578,538.817,0.0
